[{"OBJECT_NAME":"STARLINK-5701","OBJECT_ID":"2023-015AQ","EPOCH":"2026-03-09T22:00:01.999584","MEAN_MOTION":15.12694755,"ECCENTRICITY":0.00012786,"INCLINATION":42.9995,"RA_OF_ASC_NODE":337.5289,"ARG_OF_PERICENTER":234.4918,"MEAN_ANOMALY":21.7272,"EPHEMERIS_TYPE":0,"CLASSIFICATION_TYPE":"U","NORAD_CAT_ID":55487,"ELEMENT_SET_NO":999,"REV_AT_EPOCH":573,"BSTAR":0.0027927684,"MEAN_MOTION_DOT":0.00049878,"MEAN_MOTION_DDOT":0},{"OBJECT_NAME":"COSMOS 2251 DEB","OBJECT_ID":"1993-036KZ","EPOCH":"2026-03-09T13:28:08.575968","MEAN_MOTION":15.07827872,"ECCENTRICITY":0.00279097,"INCLINATION":73.9949,"RA_OF_ASC_NODE":118.7357,"ARG_OF_PERICENTER":226.7607,"MEAN_ANOMALY":259.798,"EPHEMERIS_TYPE":0,"CLASSIFICATION_TYPE":"U","NORAD_CAT_ID":34128,"ELEMENT_SET_NO":999,"REV_AT_EPOCH":90472,"BSTAR":0.0021198383,"MEAN_MOTION_DOT":0.0003287,"MEAN_MOTION_DDOT":0}]
